[{"OBJECT_NAME":"STARLINK-33920","OBJECT_ID":"2025-087P","EPOCH":"2026-01-20T11:15:11.826432","MEAN_MOTION":15.30262697,"ECCENTRICITY":0.00015192,"INCLINATION":53.1582,"RA_OF_ASC_NODE":83.7676,"ARG_OF_PERICENTER":99.4358,"MEAN_ANOMALY":260.6815,"EPHEMERIS_TYPE":0,"CLASSIFICATION_TYPE":"U","NORAD_CAT_ID":63710,"ELEMENT_SET_NO":999,"REV_AT_EPOCH":4181,"BSTAR":0.001477118,"MEAN_MOTION_DOT":0.00043732,"MEAN_MOTION_DDOT":0},{"OBJECT_NAME":"STARLINK-33580","OBJECT_ID":"2025-087Q","EPOCH":"2026-01-20T13:02:56.441184","MEAN_MOTION":15.30197288,"ECCENTRICITY":0.00018004,"INCLINATION":53.1586,"RA_OF_ASC_NODE":83.5177,"ARG_OF_PERICENTER":95.6005,"MEAN_ANOMALY":264.5201,"EPHEMERIS_TYPE":0,"CLASSIFICATION_TYPE":"U","NORAD_CAT_ID":63711,"ELEMENT_SET_NO":999,"REV_AT_EPOCH":4182,"BSTAR":-0.00042069656,"MEAN_MOTION_DOT":-0.00012797,"MEAN_MOTION_DDOT":0},{"OBJECT_NAME":"STARLINK-33783","OBJECT_ID":"2025-087R","EPOCH":"2026-01-20T11:12:09.714240","MEAN_MOTION":15.30269378,"ECCENTRICITY":0.00012986,"INCLINATION":53.1566,"RA_OF_ASC_NODE":83.7474,"ARG_OF_PERICENTER":74.8124,"MEAN_ANOMALY":285.302,"EPHEMERIS_TYPE":0,"CLASSIFICATION_TYPE":"U","NORAD_CAT_ID":63712,"ELEMENT_SET_NO":999,"REV_AT_EPOCH":4181,"BSTAR":0.001340473,"MEAN_MOTION_DOT":0.00039639,"MEAN_MOTION_DDOT":0},{"OBJECT_NAME":"STARLINK-33773","OBJECT_ID":"2025-087S","EPOCH":"2026-01-20T10:22:01.626528","MEAN_MOTION":15.30201787,"ECCENTRICITY":0.0001741,"INCLINATION":53.1602,"RA_OF_ASC_NODE":83.5309,"ARG_OF_PERICENTER":99.3506,"MEAN_ANOMALY":260.7692,"EPHEMERIS_TYPE":0,"CLASSIFICATION_TYPE":"U","NORAD_CAT_ID":63713,"ELEMENT_SET_NO":999,"REV_AT_EPOCH":4181,"BSTAR":0.00060088216,"MEAN_MOTION_DOT":0.0001748,"MEAN_MOTION_DDOT":0},{"OBJECT_NAME":"STARLINK-33745","OBJECT_ID":"2025-087T","EPOCH":"2026-01-20T11:51:30.077568","MEAN_MOTION":15.30285843,"ECCENTRICITY":0.00013171,"INCLINATION":53.1602,"RA_OF_ASC_NODE":83.2054,"ARG_OF_PERICENTER":95.9582,"MEAN_ANOMALY":264.1569,"EPHEMERIS_TYPE":0,"CLASSIFICATION_TYPE":"U","NORAD_CAT_ID":63714,"ELEMENT_SET_NO":999,"REV_AT_EPOCH":4182,"BSTAR":0.0019469515,"MEAN_MOTION_DOT":0.00057908,"MEAN_MOTION_DDOT":0},{"OBJECT_NAME":"STARLINK-33728","OBJECT_ID":"2025-087U","EPOCH":"2026-01-20T10:28:05.500128","MEAN_MOTION":15.30299014,"ECCENTRICITY":0.00016588,"INCLINATION":53.1616,"RA_OF_ASC_NODE":83.5546,"ARG_OF_PERICENTER":91.8389,"MEAN_ANOMALY":268.2801,"EPHEMERIS_TYPE":0,"CLASSIFICATION_TYPE":"U","NORAD_CAT_ID":63715,"ELEMENT_SET_NO":999,"REV_AT_EPOCH":4181,"BSTAR":0.0020689168,"MEAN_MOTION_DOT":0.00061615,"MEAN_MOTION_DDOT":0},{"OBJECT_NAME":"STARLINK-33749","OBJECT_ID":"2025-087V","EPOCH":"2026-01-20T11:19:45.233184","MEAN_MOTION":15.30269183,"ECCENTRICITY":0.00011637,"INCLINATION":53.1573,"RA_OF_ASC_NODE":83.778,"ARG_OF_PERICENTER":119.5332,"MEAN_ANOMALY":240.5785,"EPHEMERIS_TYPE":0,"CLASSIFICATION_TYPE":"U","NORAD_CAT_ID":63716,"ELEMENT_SET_NO":999,"REV_AT_EPOCH":4181,"BSTAR":0.0019294642,"MEAN_MOTION_DOT":0.00057351,"MEAN_MOTION_DDOT":0},{"OBJECT_NAME":"STARLINK-33725","OBJECT_ID":"2025-087W","EPOCH":"2026-01-20T10:32:38.902560","MEAN_MOTION":15.3027673,"ECCENTRICITY":0.00015234,"INCLINATION":53.1589,"RA_OF_ASC_NODE":83.571,"ARG_OF_PERICENTER":104.1496,"MEAN_ANOMALY":255.9674,"EPHEMERIS_TYPE":0,"CLASSIFICATION_TYPE":"U","NORAD_CAT_ID":63717,"ELEMENT_SET_NO":999,"REV_AT_EPOCH":4181,"BSTAR":0.0016829486,"MEAN_MOTION_DOT":0.0004994,"MEAN_MOTION_DDOT":0},{"OBJECT_NAME":"STARLINK-33641","OBJECT_ID":"2025-087X","EPOCH":"2026-01-20T14:03:33.399936","MEAN_MOTION":15.30221557,"ECCENTRICITY":0.00010652,"INCLINATION":53.1576,"RA_OF_ASC_NODE":83.0669,"ARG_OF_PERICENTER":52.7655,"MEAN_ANOMALY":307.3443,"EPHEMERIS_TYPE":0,"CLASSIFICATION_TYPE":"U","NORAD_CAT_ID":63718,"ELEMENT_SET_NO":999,"REV_AT_EPOCH":4183,"BSTAR":0.00059458481,"MEAN_MOTION_DOT":0.00017303,"MEAN_MOTION_DDOT":0},{"OBJECT_NAME":"STARLINK-33727","OBJECT_ID":"2025-087Y","EPOCH":"2026-01-20T11:48:27.955872","MEAN_MOTION":15.30277526,"ECCENTRICITY":0.00015412,"INCLINATION":53.1607,"RA_OF_ASC_NODE":83.1965,"ARG_OF_PERICENTER":91.8335,"MEAN_ANOMALY":268.2842,"EPHEMERIS_TYPE":0,"CLASSIFICATION_TYPE":"U","NORAD_CAT_ID":63719,"ELEMENT_SET_NO":999,"REV_AT_EPOCH":4182,"BSTAR":0.0019182055,"MEAN_MOTION_DOT":0.00057027,"MEAN_MOTION_DDOT":0},{"OBJECT_NAME":"STARLINK-33757","OBJECT_ID":"2025-087Z","EPOCH":"2026-01-20T10:47:51.673632","MEAN_MOTION":15.30178544,"ECCENTRICITY":0.00021335,"INCLINATION":53.1578,"RA_OF_ASC_NODE":83.6406,"ARG_OF_PERICENTER":145.7071,"MEAN_ANOMALY":214.4068,"EPHEMERIS_TYPE":0,"CLASSIFICATION_TYPE":"U","NORAD_CAT_ID":63720,"ELEMENT_SET_NO":999,"REV_AT_EPOCH":4181,"BSTAR":0.00073756597,"MEAN_MOTION_DOT":0.00021535,"MEAN_MOTION_DDOT":0},{"OBJECT_NAME":"STARLINK-33774","OBJECT_ID":"2025-087AA","EPOCH":"2026-01-20T11:09:08.702784","MEAN_MOTION":15.30186571,"ECCENTRICITY":0.00016766,"INCLINATION":53.1574,"RA_OF_ASC_NODE":83.7337,"ARG_OF_PERICENTER":95.9142,"MEAN_ANOMALY":264.205,"EPHEMERIS_TYPE":0,"CLASSIFICATION_TYPE":"U","NORAD_CAT_ID":63721,"ELEMENT_SET_NO":999,"REV_AT_EPOCH":4181,"BSTAR":0.00033676706,"MEAN_MOTION_DOT":9.624e-5,"MEAN_MOTION_DDOT":0},{"OBJECT_NAME":"STARLINK-33767","OBJECT_ID":"2025-087AB","EPOCH":"2026-01-20T10:29:36.708288","MEAN_MOTION":15.30265613,"ECCENTRICITY":0.0001822,"INCLINATION":53.1598,"RA_OF_ASC_NODE":83.5603,"ARG_OF_PERICENTER":89.6869,"MEAN_ANOMALY":270.434,"EPHEMERIS_TYPE":0,"CLASSIFICATION_TYPE":"U","NORAD_CAT_ID":63722,"ELEMENT_SET_NO":999,"REV_AT_EPOCH":4181,"BSTAR":0.0020626531,"MEAN_MOTION_DOT":0.00061362,"MEAN_MOTION_DDOT":0},{"OBJECT_NAME":"STARLINK-33806","OBJECT_ID":"2025-087AC","EPOCH":"2026-01-20T13:46:49.902816","MEAN_MOTION":15.30246636,"ECCENTRICITY":0.00016447,"INCLINATION":53.1591,"RA_OF_ASC_NODE":82.9943,"ARG_OF_PERICENTER":94.5459,"MEAN_ANOMALY":265.5729,"EPHEMERIS_TYPE":0,"CLASSIFICATION_TYPE":"U","NORAD_CAT_ID":63723,"ELEMENT_SET_NO":999,"REV_AT_EPOCH":4183,"BSTAR":0.00089784541,"MEAN_MOTION_DOT":0.00026365,"MEAN_MOTION_DDOT":0},{"OBJECT_NAME":"STARLINK-11677 [DTC]","OBJECT_ID":"2025-089A","EPOCH":"2026-01-20T22:47:07.619136","MEAN_MOTION":15.70822469,"ECCENTRICITY":0.00013644,"INCLINATION":42.9991,"RA_OF_ASC_NODE":220.3273,"ARG_OF_PERICENTER":292.8847,"MEAN_ANOMALY":67.1877,"EPHEMERIS_TYPE":0,"CLASSIFICATION_TYPE":"U","NORAD_CAT_ID":63751,"ELEMENT_SET_NO":999,"REV_AT_EPOCH":4262,"BSTAR":0.00097971525,"MEAN_MOTION_DOT":0.00127107,"MEAN_MOTION_DDOT":0},{"OBJECT_NAME":"STARLINK-11702 [DTC]","OBJECT_ID":"2025-089B","EPOCH":"2026-01-20T22:08:55.450464","MEAN_MOTION":15.70872004,"ECCENTRICITY":0.00014785,"INCLINATION":42.9986,"RA_OF_ASC_NODE":220.1134,"ARG_OF_PERICENTER":304.9028,"MEAN_ANOMALY":55.17,"EPHEMERIS_TYPE":0,"CLASSIFICATION_TYPE":"U","NORAD_CAT_ID":63752,"ELEMENT_SET_NO":999,"REV_AT_EPOCH":4262,"BSTAR":0.0034804532,"MEAN_MOTION_DOT":0.00473174,"MEAN_MOTION_DDOT":0}]
