STARLINK-33920          
1 63710U 25087P   26020.46888688  .00043732  00000+0  14771-2 0  9995
2 63710  53.1582  83.7676 0001519  99.4358 260.6815 15.30262697 41817
STARLINK-33580          
1 63711U 25087Q   26020.54370881 -.00012797  00000+0 -42070-3 0  9999
2 63711  53.1586  83.5177 0001800  95.6005 264.5201 15.30197288 41822
STARLINK-33783          
1 63712U 25087R   26020.46677910  .00039639  00000+0  13405-2 0  9995
2 63712  53.1566  83.7474 0001298  74.8124 285.3020 15.30269378 41814
STARLINK-33773          
1 63713U 25087S   26020.43196327  .00017480  00000+0  60088-3 0  9991
2 63713  53.1602  83.5309 0001741  99.3506 260.7692 15.30201787 41812
STARLINK-33745          
1 63714U 25087T   26020.49409812  .00057908  00000+0  19470-2 0  9991
2 63714  53.1602  83.2054 0001317  95.9582 264.1569 15.30285843 41829
STARLINK-33728          
1 63715U 25087U   26020.43617477  .00061615  00000+0  20689-2 0  9998
2 63715  53.1616  83.5546 0001658  91.8389 268.2801 15.30299014 41810
STARLINK-33749          
1 63716U 25087V   26020.47205131  .00057351  00000+0  19295-2 0  9996
2 63716  53.1573  83.7780 0001163 119.5332 240.5785 15.30269183 41810
STARLINK-33725          
1 63717U 25087W   26020.43933915  .00049940  00000+0  16829-2 0  9996
2 63717  53.1589  83.5710 0001523 104.1496 255.9674 15.30276730 41813
STARLINK-33641          
1 63718U 25087X   26020.58580324  .00017303  00000+0  59458-3 0  9999
2 63718  53.1576  83.0669 0001065  52.7655 307.3443 15.30221557 41839
STARLINK-33727          
1 63719U 25087Y   26020.49199023  .00057027  00000+0  19182-2 0  9998
2 63719  53.1607  83.1965 0001541  91.8335 268.2842 15.30277526 41827
STARLINK-33757          
1 63720U 25087Z   26020.44990363  .00021535  00000+0  73757-3 0  9995
2 63720  53.1578  83.6406 0002133 145.7071 214.4068 15.30178544 41817
STARLINK-33774          
1 63721U 25087AA  26020.46468406  .00009624  00000+0  33677-3 0  9998
2 63721  53.1574  83.7337 0001676  95.9142 264.2050 15.30186571 41817
STARLINK-33767          
1 63722U 25087AB  26020.43723042  .00061362  00000+0  20627-2 0  9993
2 63722  53.1598  83.5603 0001822  89.6869 270.4340 15.30265613 41813
STARLINK-33806          
1 63723U 25087AC  26020.57418869  .00026365  00000+0  89785-3 0  9992
2 63723  53.1591  82.9943 0001644  94.5459 265.5729 15.30246636 41831
STARLINK-11677 [DTC]    
1 63751U 25089A   26020.94939374  .00127107  00000+0  97972-3 0  9998
2 63751  42.9991 220.3273 0001364 292.8847  67.1877 15.70822469 42625
STARLINK-11702 [DTC]    
1 63752U 25089B   26020.92286401  .00473174  00000+0  34805-2 0  9996
2 63752  42.9986 220.1134 0001478 304.9028  55.1700 15.70872004 42628
